AMC-1 (GE-1)            
1 24315U 96054A   23095.57669369  .00000074  00000+0  00000+0 0  9998
2 24315   6.3117  70.5876 0003734 308.0620 251.6766  1.00273463 34606
AMC-3 (GE-3)            
1 24936U 97050A   23095.39445028 -.00000252  00000+0  00000+0 0  9997
2 24936   5.2602  76.6528 0003154 300.8470 245.9371  1.00271769 40716
ASTRA 1G                
1 25071U 97076A   23095.53230972  .00000124  00000+0  00000+0 0  9999
2 25071   6.9149  65.9588 0004613 303.4521  35.1966  1.00273562 92781
ASTRA 2A                
1 25462U 98050A   23095.56160573  .00000077  00000+0  00000+0 0  9995
2 25462   4.1356  82.3711 0003359 287.1137  83.4852  1.00270984 34627
AMC-4 (GE-4)            
1 25954U 99060A   23095.31539500 -.00000099  00000+0  00000+0 0  9991
2 25954   2.2261  86.8052 0002128 301.6720 289.0437  0.99136052 31823
NSS-11 (AAP-1)          
1 26554U 00059A   23095.61937130  .00000030  00000+0  00000+0 0  9996
2 26554   0.0514  67.6473 0002633 298.2537 226.7122  1.00272407 29575
AMC-6 (GE-6)            
1 26580U 00067A   23095.42243949  .00000109  00000+0  00000+0 0  9998
2 26580   0.0483  66.4300 0002170 307.1378 192.9562  1.00272327 82183
ASTRA 2D                
1 26638U 00081A   23095.10952177 -.00000104  00000+0  00000+0 0  9999
2 26638   7.9136  58.4890 0001671  13.6808 173.2826  0.99003251 41179
AMC-8 (GE-8)            
1 26639U 00081B   23095.57688361  .00000101  00000+0  00000+0 0  9998
2 26639   3.1024  86.5553 0005050 260.7864 115.7664  0.99147323 81606
ASTRA 2C                
1 26853U 01025A   23095.39893799 -.00000250  00000+0  00000+0 0  9994
2 26853   5.2836  76.4691 0003229 290.3616 257.7143  1.00275506 33322
NSS-7                   
1 27414U 02019A   23095.25118726 -.00000149  00000+0  00000+0 0  9994
2 27414   6.5836  68.8274 0002604 305.6149 249.2568  1.00271238 76848
NSS-6                   
1 27603U 02057A   23095.52787837  .00000115  00000+0  00000+0 0  9993
2 27603   2.3502  88.2126 0003176 283.8431 202.0003  1.00272761 74324
AMC-11 (GE-11)          
1 28252U 04017A   23095.45773197 -.00000044  00000+0  00000+0 0  9990
2 28252   0.0508  57.7669 0002005 284.0743 265.3383  1.00272160 69159
AMC-15                  
1 28446U 04041A   23095.47186340 -.00000083  00000+0  00000+0 0  9995
2 28446   0.0496  49.9960 0002504 323.2172 245.1101  1.00272039 67598
NSS-10 (AMC-12)         
1 28526U 05003A   23095.37754348 -.00000243  00000+0  00000+0 0  9999
2 28526   3.5087  84.1513 0003302 274.7030 293.0330  1.00272644 41439
ASTRA 1KR               
1 29055U 06012A   23095.53222257  .00000124  00000+0  00000+0 0  9992
2 29055   0.0212 206.1348 0001833 114.6771  83.5195  1.00268368 34006
AMC-18                  
1 29644U 06054B   23095.39354833 -.00000211  00000+0  00000+0 0  9990
2 29644   0.0480  61.0530 0002432 311.5285 239.5303  1.00272139 59813
ASTRA 1L                
1 31306U 07016A   23095.53222257  .00000125  00000+0  00000+0 0  9990
2 31306   0.0200 318.0295 0004657  18.9084  67.3989  1.00270680 33289
ASTRA 4A (SIRIUS 4)     
1 32299U 07057A   23095.31426184  .00000037  00000+0  00000+0 0  9990
2 32299   0.0520  67.6867 0002539 300.2266 303.3701  1.00271638 39942
AMC-21                  
1 33275U 08038B   23095.46438312  .00000041  00000+0  00000+0 0  9992
2 33275   0.0320  92.2336 0003100 285.8973 217.6475  1.00272011 53776
ASTRA 1M                
1 33436U 08057A   23095.53222257  .00000125  00000+0  00000+0 0  9992
2 33436   0.0516  91.5580 0002885 335.1737 337.5930  1.00272354 34004
CIEL-2                  
1 33453U 08063A   23095.46103786  .00000063  00000+0  00000+0 0  9996
2 33453   0.0100 171.8613 0002678 215.3655 203.3783  1.00272467 52415
NSS-9                   
1 33749U 09008A   23095.61481671  .00000077  00000+0  00000+0 0  9998
2 33749   0.0514  56.0268 0002098 305.4849 236.5312  1.00270735 51819
SES-7 (PROTOSTAR 2)     
1 34941U 09027A   23095.63583010 -.00000340  00000+0  00000+0 0  9990
2 34941   0.0918  84.9315 0001367 243.5777 202.2992  1.00270722 50904
NSS-12                  
1 36032U 09058A   23095.40118847  .00000076  00000+0  00000+0 0  9999
2 36032   0.0512  72.0088 0002841 309.6798  13.1871  1.00273719 49190
SES-1                   
1 36516U 10016A   23095.46939572 -.00000109  00000+0  00000+0 0  9992
2 36516   0.0522  69.2182 0002521 304.7783 247.4802  1.00271476 47323
ASTRA 3B                
1 36581U 10021A   23095.53309421  .00000142  00000+0  00000+0 0  9998
2 36581   0.1077  69.0835 0003425 301.8780  37.9991  1.00273163 47150
SES-3                   
1 37748U 11035A   23095.61177763 -.00000096  00000+0  00000+0 0  9990
2 37748   0.0520  54.9630 0002615 330.1650 285.7535  1.00271871 42870
ASTRA 1N                
1 37775U 11041A   23094.82341005  .00000123  00000+0  00000+0 0  9991
2 37775   0.0655  36.6541 0005424 351.5074 120.3268  1.00270699 32801
SES-2                   
1 37809U 11049A   23095.36769385 -.00000191  00000+0  00000+0 0  9998
2 37809   0.0501  68.2206 0002496 302.7018 227.8422  1.00273125 42230
QUETZSAT 1              
1 37826U 11054A   23095.37864874 -.00000237  00000+0  00000+0 0  9994
2 37826   0.0500  66.3345 0002744 323.6194 222.7701  1.00271695 38165
SES-4                   
1 38087U 12007A   23095.38059426 -.00000164  00000+0  00000+0 0  9992
2 38087   0.0261  87.5138 0002315 283.5079 297.3933  1.00270114 40516
SES-5                   
1 38652U 12036A   23095.31426184  .00000038  00000+0  00000+0 0  9993
2 38652   0.0551 295.6471 0002180  74.5254 301.2966  1.00272489 32767
ASTRA 2F                
1 38778U 12051A   23095.53405302  .00000155  00000+0  00000+0 0  9992
2 38778   0.0695 247.4478 0001556  29.0731 137.5027  1.00274747 29402
SES-6                   
1 39172U 13026A   23095.50466316 -.00000256  00000+0  00000+0 0  9996
2 39172   0.0389 302.5406 0002156  77.3700 314.8079  1.00272154 36005
O3B FM5                 
1 39188U 13031A   23095.51737589 -.00000017  00000+0  00000+0 0  9998
2 39188   0.0627 352.8827 0002960  25.0150 342.1126  5.00115529178565
O3B FM4                 
1 39189U 13031B   23095.37330889 -.00000017  00000+0  00000+0 0  9995
2 39189   0.0404  12.1728 0002893   5.7008 342.1364  5.00116013178582
O3B FM2                 
1 39190U 13031C   23095.26509329 -.00000017  00000+0  00000+0 0  9992
2 39190   0.0363  16.8493 0002821 359.2024 343.9570  5.00115274178636
O3B PFM                 
1 39191U 13031D   23095.29114968 -.00000017  00000+0  00000+0 0  9997
2 39191   0.0558 358.6756 0002657  14.5651 346.7661  5.00116010178198
ASTRA 2E                
1 39285U 13056A   23095.53405302  .00000155  00000+0  00000+0 0  9992
2 39285   0.0674 337.9942 0002471  36.3285  39.9828  1.00271031 34713
SES-8                   
1 39460U 13071A   23095.59196911 -.00000264  00000+0  00000+0 0  9995
2 39460   0.0133 225.7587 0002393 178.7792  97.1939  1.00271351 32716
ASTRA 5B                
1 39617U 14011B   23095.53466317  .00000160  00000+0  00000+0 0  9992
2 39617   0.0204 311.3982 0003870  65.8080  40.3296  1.00270079 32944
O3B FM3                 
1 40079U 14038A   23095.34577017 -.00000017  00000+0  00000+0 0  9996
2 40079   0.0456   4.4779 0002990 319.3332  36.1686  5.00116750154579
O3B FM7                 
1 40080U 14038B   23095.49200457 -.00000017  00000+0  00000+0 0  9995
2 40080   0.0411   3.5684 0003932  34.3679 322.0914  5.00115742159411
O3B FM6                 
1 40081U 14038C   23095.51846597 -.00000017  00000+0  00000+0 0  9990
2 40081   0.0455   5.8737 0002754   7.2585 346.8750  5.00115347159356
O3B FM8                 
1 40082U 14038D   23095.37233862 -.00000017  00000+0  00000+0 0  9990
2 40082   0.0440   9.4581 0002575   3.9321 346.6165  5.00115874159476
O3B FM10                
1 40348U 14083A   23094.99883026 -.00000018  00000+0  00000+0 0  9996
2 40348   0.0544   3.8136 0002668   9.8001 346.3932  5.00115310151402
O3B FM11                
1 40349U 14083B   23095.41198371 -.00000017  00000+0  00000+0 0  9996
2 40349   0.0526 359.1516 0003324  20.5868 340.2744  5.00115498151448
O3B FM12                
1 40350U 14083C   23095.23934140 -.00000017  00000+0  00000+0 0  9990
2 40350   0.0521   0.1024 0002875  12.2759 347.6286  5.00115419151444
O3B FM9                 
1 40351U 14083D   23095.26590482 -.00000017  00000+0  00000+0 0  9991
2 40351   0.0525 357.9577 0002746  17.0330 345.0172  5.00116165151591
ASTRA 2G                
1 40364U 14089A   23095.53405302  .00000155  00000+0  00000+0 0  9999
2 40364   0.0153  34.2643 0004669   5.0818  14.6648  1.00270128 30246
SES-9                   
1 41380U 16013A   23095.05049385 -.00000342  00000+0  00000+0 0  9998
2 41380   0.0168 268.9021 0001993 142.6622 268.0031  1.00271502 25719
SES-10                  
1 42432U 17017A   23094.32965988 -.00000270  00000+0  00000+0 0  9997
2 42432   0.0387  57.7447 0002594 317.1271 229.2926  1.00270609 22013
SES-15                  
1 42709U 17026A   23095.57816338  .00000065  00000+0  00000+0 0  9997
2 42709   0.0105 116.0939 0000401 259.8816 256.6200  1.00270823 22427
SES-11 (ECHOSTAR 105)   
1 42967U 17063A   23095.57976912 -.00000083  00000+0  00000+0 0  9990
2 42967   0.0188 212.8105 0002303 135.6011 308.9702  1.00270180 20001
SES-14                  
1 43175U 18012B   23095.51897352 -.00000273  00000+0  00000+0 0  9992
2 43175   0.0167 281.7527 0001027  91.5178 319.6159  1.00270737 19347
O3B FM15                
1 43231U 18024A   23095.33180548 -.00000017  00000+0  00000+0 0  9996
2 43231   0.0562   6.8428 0002970   5.0556 348.1084  5.00116481 92550
O3B FM16                
1 43232U 18024B   23095.38527591 -.00000017  00000+0  00000+0 0  9995
2 43232   0.0594   9.4216 0002991   3.2007 347.3851  5.00116220 92468
O3B FM14                
1 43233U 18024C   23095.42514373 -.00000017  00000+0  00000+0 0  9995
2 43233   0.0601  10.7811 0003059   4.9518 344.2765  5.00115654 92487
O3B FM13                
1 43234U 18024D   23094.27941517 -.00000020  00000+0  00000+0 0  9996
2 43234   0.0698 351.6948 0003447   8.7406 359.5640  5.00115753 92549
